ONEWEB-0207             
1 48242U 21031AJ  24182.68149001  .00000164  00000+0  40837-3 0  9998
2 48242  87.8960  72.2359 0001708  85.1868 274.9457 13.14501395154167
ONEWEB-0208             
1 48243U 21031AK  24183.19606185 -.00000128  00000+0 -37942-3 0  9992
2 48243  87.8956  72.1481 0001764  74.9823 285.1501 13.14501676154242
ONEWEB-0200             
1 48244U 21031AL  24183.15959535  .00000105  00000+0  24742-3 0  9996
2 48244  87.8958  72.1527 0001767  72.0230 288.1092 13.14501281154172
ONEWEB-0217             
1 48245U 21031AM  24183.17545001 -.00000128  00000+0 -38073-3 0  9997
2 48245  87.8958  72.1339 0001759  68.1884 291.9432 13.14501460154120
ONEWEB-0211             
1 48767U 21045A   24182.86315282 -.00000032  00000+0 -11995-3 0  9990
2 48767  87.9024  41.7263 0001906  81.2450 278.8896 13.15546887150230
ONEWEB-0223             
1 48768U 21045B   24182.65717283  .00000065  00000+0  13874-3 0  9997
2 48768  87.9029  41.7750 0002355  70.0799 290.0585 13.15548133150190
ONEWEB-0230             
1 48769U 21045C   24182.85681800  .00000017  00000+0  10358-4 0  9997
2 48769  87.9028  41.8061 0001969  85.3303 274.8053 13.15550346150487
ONEWEB-0237             
1 48770U 21045D   24182.84573331  .00000104  00000+0  24205-3 0  9999
2 48770  87.9035  41.7403 0002162  75.5358 284.6012 13.15548380150202
